[{"OBJECT_NAME":"OBJECT V","OBJECT_ID":"2025-155V","EPOCH":"2026-03-09T20:35:20.067360","MEAN_MOTION":15.27583301,"ECCENTRICITY":0.00080353,"INCLINATION":97.4485,"RA_OF_ASC_NODE":37.249,"ARG_OF_PERICENTER":152.8264,"MEAN_ANOMALY":207.3397,"EPHEMERIS_TYPE":0,"CLASSIFICATION_TYPE":"U","NORAD_CAT_ID":64895,"ELEMENT_SET_NO":999,"REV_AT_EPOCH":6557,"BSTAR":0.00051002361,"MEAN_MOTION_DOT":0.00013705,"MEAN_MOTION_DDOT":0},{"OBJECT_NAME":"STARLINK-36468","OBJECT_ID":"2026-005M","EPOCH":"2026-03-09T12:00:43.062624","MEAN_MOTION":15.27593567,"ECCENTRICITY":0.00017938,"INCLINATION":42.9967,"RA_OF_ASC_NODE":239.3847,"ARG_OF_PERICENTER":290.0417,"MEAN_ANOMALY":70.0242,"EPHEMERIS_TYPE":0,"CLASSIFICATION_TYPE":"U","NORAD_CAT_ID":67415,"ELEMENT_SET_NO":999,"REV_AT_EPOCH":866,"BSTAR":0.0014118548,"MEAN_MOTION_DOT":0.00038811,"MEAN_MOTION_DDOT":0}]
